[{"OBJECT_NAME":"STARLINK-36061","OBJECT_ID":"2025-280AC","EPOCH":"2026-03-09T22:00:01.999584","MEAN_MOTION":14.98342573,"ECCENTRICITY":0.00023742,"INCLINATION":70.0018,"RA_OF_ASC_NODE":334.0435,"ARG_OF_PERICENTER":266.5384,"MEAN_ANOMALY":170.7781,"EPHEMERIS_TYPE":0,"CLASSIFICATION_TYPE":"U","NORAD_CAT_ID":66847,"ELEMENT_SET_NO":999,"REV_AT_EPOCH":572,"BSTAR":-0.0024858052,"MEAN_MOTION_DOT":-0.00029637,"MEAN_MOTION_DDOT":0},{"OBJECT_NAME":"PSLV DEB","OBJECT_ID":"2001-049PF","EPOCH":"2026-02-25T09:35:51.227808","MEAN_MOTION":15.03011877,"ECCENTRICITY":0.00263657,"INCLINATION":98.0083,"RA_OF_ASC_NODE":118.9106,"ARG_OF_PERICENTER":265.6966,"MEAN_ANOMALY":94.1245,"EPHEMERIS_TYPE":0,"CLASSIFICATION_TYPE":"U","NORAD_CAT_ID":28853,"ELEMENT_SET_NO":999,"REV_AT_EPOCH":68879,"BSTAR":0.00037786861,"MEAN_MOTION_DOT":5.057e-5,"MEAN_MOTION_DDOT":0}]
